     3.02           N: GNSS NAV DATA    E: GALILEO NAV DATA RINEX VERSION / TYPE
NetR9 5.43          SMO                 20210521 070427 UTC PGM / RUN BY / DATE
GAL     .4675D+02   .9766D-01   .9674D-02   .0000D+00       IONOSPHERIC CORR
GAUT   .0000000000D+00  .000000000D+00 432000 2158          TIME SYSTEM CORR
GPGA   .1484295353D-08 -.159872116D-13 432000 2158          TIME SYSTEM CORR
    18    18  2185     7                                    LEAP SECONDS
                                                            END OF HEADER
E 7 2021 05 21 06 30 00 -.540203996934D-03 -.457589521830D-11  .000000000000D+00
      .119000000000D+03 -.129625000000D+03  .339156984393D-08  .496438890512D+00
     -.586919486523D-05  .412681140006D-03  .113081187010D-04  .544062481117D+04
      .455400000000D+06  .298023223877D-07 -.142058664139D+01 -.149011611938D-07
      .954452081332D+00  .964062500000D+02 -.970327055365D+00 -.566916471489D-08
     -.182507602174D-09  .258000000000D+03  .215800000000D+04
      .312000000000D+01  .000000000000D+00  .512227416039D-08  .000000000000D+00
      .456120000000D+06
E 7 2021 05 21 06 40 00 -.540206383448D-03 -.456168436358D-11  .000000000000D+00
      .120000000000D+03 -.130375000000D+03  .339585573674D-08  .571397864923D+00
     -.590458512306D-05  .412574736401D-03  .114031136036D-04  .544062429619D+04
      .456000000000D+06  .316649675369D-07 -.142059004852D+01 -.130385160446D-07
      .954451980390D+00  .944687500000D+02 -.970901160010D+00 -.566773608396D-08
     -.182507602174D-09  .513000000000D+03  .215800000000D+04
      .312000000000D+01  .000000000000D+00  .512227416039D-08  .582076609135D-08
      .456685000000D+06
E 7 2021 05 21 06 40 00 -.540206383448D-03 -.456168436358D-11  .000000000000D+00
      .120000000000D+03 -.130375000000D+03  .339585573674D-08  .571397864923D+00
     -.590458512306D-05  .412574736401D-03  .114031136036D-04  .544062429619D+04
      .456000000000D+06  .316649675369D-07 -.142059004852D+01 -.130385160446D-07
      .954451980390D+00  .944687500000D+02 -.970901160010D+00 -.566773608396D-08
     -.182507602174D-09  .516000000000D+03  .215800000000D+04
      .312000000000D+01  .000000000000D+00  .512227416039D-08  .582076609135D-08
      .456664000000D+06
E 7 2021 05 21 06 40 00 -.540206732694D-03 -.457589521830D-11  .000000000000D+00
      .120000000000D+03 -.130375000000D+03  .339585573674D-08  .571397864923D+00
     -.590458512306D-05  .412574736401D-03  .114031136036D-04  .544062429619D+04
      .456000000000D+06  .316649675369D-07 -.142059004852D+01 -.130385160446D-07
      .954451980390D+00  .944687500000D+02 -.970901160010D+00 -.566773608396D-08
     -.182507602174D-09  .258000000000D+03  .215800000000D+04
      .312000000000D+01  .000000000000D+00  .512227416039D-08  .000000000000D+00
      .456720000000D+06
E 8 2021 05 21 05 40 00  .599879899528D-02 -.602540239925D-11  .000000000000D+00
      .114000000000D+03 -.126125000000D+03  .329085136288D-08  .609892511945D+00
     -.578351318836D-05  .352104660124D-03  .115390866995D-04  .544062452126D+04
      .452400000000D+06  .167638063431D-07 -.142545008036D+01 -.931322574615D-08
      .960374517922D+00  .947500000000D+02 -.673896545742D+00 -.560559063821D-08
     -.204294223960D-09  .513000000000D+03  .215800000000D+04
      .312000000000D+01  .000000000000D+00 -.349245965481D-08 -.419095158577D-08
      .453085000000D+06
E 8 2021 05 21 05 40 00  .599879899528D-02 -.602540239925D-11  .000000000000D+00
      .114000000000D+03 -.126125000000D+03  .329085136288D-08  .609892511945D+00
     -.578351318836D-05  .352104660124D-03  .115390866995D-04  .544062452126D+04
      .452400000000D+06  .167638063431D-07 -.142545008036D+01 -.931322574615D-08
      .960374517922D+00  .947500000000D+02 -.673896545742D+00 -.560559063821D-08
     -.204294223960D-09  .516000000000D+03  .215800000000D+04
      .312000000000D+01  .000000000000D+00 -.349245965481D-08 -.419095158577D-08
      .453064000000D+06
E 8 2021 05 21 05 40 00  .599880004302D-02 -.601119154453D-11  .000000000000D+00
      .114000000000D+03 -.126125000000D+03  .329085136288D-08  .609892511945D+00
     -.578351318836D-05  .352104660124D-03  .115390866995D-04  .544062452126D+04
      .452400000000D+06  .167638063431D-07 -.142545008036D+01 -.931322574615D-08
      .960374517922D+00  .947500000000D+02 -.673896545742D+00 -.560559063821D-08
     -.204294223960D-09  .258000000000D+03  .215800000000D+04
      .312000000000D+01  .000000000000D+00 -.349245965481D-08  .000000000000D+00
      .453120000000D+06
E 8 2021 05 21 05 50 00  .599879532820D-02 -.602540239925D-11  .000000000000D+00
      .115000000000D+03 -.123812500000D+03  .327799368445D-08  .683422510902D+00
     -.570155680180D-05  .352212577127D-03  .114962458611D-04  .544062515450D+04
      .453000000000D+06  .167638063431D-07 -.142545344507D+01 -.111758708954D-07
      .960374392111D+00  .959062500000D+02 -.673041291648D+00 -.560594779594D-08
     -.203937066226D-09  .513000000000D+03  .215800000000D+04
      .312000000000D+01  .000000000000D+00 -.349245965481D-08 -.419095158577D-08
      .453685000000D+06
E 8 2021 05 21 05 50 00  .599879532820D-02 -.602540239925D-11  .000000000000D+00
      .115000000000D+03 -.123812500000D+03  .327799368445D-08  .683422510902D+00
     -.570155680180D-05  .352212577127D-03  .114962458611D-04  .544062515450D+04
      .453000000000D+06  .167638063431D-07 -.142545344507D+01 -.111758708954D-07
      .960374392111D+00  .959062500000D+02 -.673041291648D+00 -.560594779594D-08
     -.203937066226D-09  .516000000000D+03  .215800000000D+04
      .312000000000D+01  .000000000000D+00 -.349245965481D-08 -.419095158577D-08
      .453664000000D+06
E 8 2021 05 21 05 50 00  .599879637593D-02 -.601119154453D-11  .000000000000D+00
      .115000000000D+03 -.123812500000D+03  .327799368445D-08  .683422510902D+00
     -.570155680180D-05  .352212577127D-03  .114962458611D-04  .544062515450D+04
      .453000000000D+06  .167638063431D-07 -.142545344507D+01 -.111758708954D-07
      .960374392111D+00  .959062500000D+02 -.673041291648D+00 -.560594779594D-08
     -.203937066226D-09  .258000000000D+03  .215800000000D+04
      .312000000000D+01  .000000000000D+00 -.349245965481D-08  .000000000000D+00
      .453720000000D+06
E 8 2021 05 21 06 00 00  .599879160291D-02 -.602540239925D-11  .000000000000D+00
      .116000000000D+03 -.120812500000D+03  .326299305962D-08  .756734557009D+00
     -.558979809284D-05  .352314556949D-03  .114608556032D-04  .544062592888D+04
      .453600000000D+06  .186264514923D-07 -.142545680832D+01 -.111758708954D-07
      .960374263374D+00  .968437500000D+02 -.671968061298D+00 -.560701926914D-08
     -.203579908492D-09  .513000000000D+03  .215800000000D+04
      .312000000000D+01  .000000000000D+00 -.349245965481D-08 -.419095158577D-08
      .454285000000D+06
E 8 2021 05 21 06 00 00  .599879160291D-02 -.602540239925D-11  .000000000000D+00
      .116000000000D+03 -.120812500000D+03  .326299305962D-08  .756734557009D+00
     -.558979809284D-05  .352314556949D-03  .114608556032D-04  .544062592888D+04
      .453600000000D+06  .186264514923D-07 -.142545680832D+01 -.111758708954D-07
      .960374263374D+00  .968437500000D+02 -.671968061298D+00 -.560701926914D-08
     -.203579908492D-09  .516000000000D+03  .215800000000D+04
      .312000000000D+01  .000000000000D+00 -.349245965481D-08 -.419095158577D-08
      .454264000000D+06
E 8 2021 05 21 06 00 00  .599879265064D-02 -.601119154453D-11  .000000000000D+00
      .116000000000D+03 -.120812500000D+03  .326299305962D-08  .756734557009D+00
     -.558979809284D-05  .352314556949D-03  .114608556032D-04  .544062592888D+04
      .453600000000D+06  .186264514923D-07 -.142545680832D+01 -.111758708954D-07
      .960374263374D+00  .968437500000D+02 -.671968061298D+00 -.560701926914D-08
     -.203579908492D-09  .258000000000D+03  .215800000000D+04
      .312000000000D+01  .000000000000D+00 -.349245965481D-08  .000000000000D+00
      .454320000000D+06
E 8 2021 05 21 06 10 00  .599878799403D-02 -.601119154453D-11  .000000000000D+00
      .117000000000D+03 -.117312500000D+03  .324620664611D-08  .829901300240D+00
     -.545941293240D-05  .352393952198D-03  .114422291517D-04  .544062679482D+04
      .454200000000D+06  .186264514923D-07 -.142546017303D+01 -.130385160446D-07
      .960374133175D+00  .973750000000D+02 -.670749532462D+00 -.560809074235D-08
     -.202508435289D-09  .513000000000D+03  .215800000000D+04
      .312000000000D+01  .000000000000D+00 -.349245965481D-08 -.419095158577D-08
      .454885000000D+06
E 8 2021 05 21 06 10 00  .599878799403D-02 -.601119154453D-11  .000000000000D+00
      .117000000000D+03 -.117312500000D+03  .324620664611D-08  .829901300240D+00
     -.545941293240D-05  .352393952198D-03  .114422291517D-04  .544062679482D+04
      .454200000000D+06  .186264514923D-07 -.142546017303D+01 -.130385160446D-07
      .960374133175D+00  .973750000000D+02 -.670749532462D+00 -.560809074235D-08
     -.202508435289D-09  .516000000000D+03  .215800000000D+04
      .312000000000D+01  .000000000000D+00 -.349245965481D-08 -.419095158577D-08
      .454864000000D+06
E 8 2021 05 21 06 10 00  .599878904177D-02 -.601119154453D-11  .000000000000D+00
      .117000000000D+03 -.117312500000D+03  .324620664611D-08  .829901300240D+00
     -.545941293240D-05  .352393952198D-03  .114422291517D-04  .544062679482D+04
      .454200000000D+06  .186264514923D-07 -.142546017303D+01 -.130385160446D-07
      .960374133175D+00  .973750000000D+02 -.670749532462D+00 -.560809074235D-08
     -.202508435289D-09  .258000000000D+03  .215800000000D+04
      .312000000000D+01  .000000000000D+00 -.349245965481D-08  .000000000000D+00
      .454920000000D+06
